{
  "norad_id": 63036,
  "name": "STARLINK-32818",
  "history": [
    {
      "epoch": "2026-03-28T14:47:25.399680Z",
      "apogee_km": 475.8821891804746,
      "perigee_km": 474.4388847191931,
      "latitude_deg": -6.00554830655749e-05,
      "longitude_deg": 122.38766775428134,
      "height_km": 475.9416367481845,
      "semi_major_axis_km": 6853.297536949834,
      "eccentricity": 0.0001053,
      "inclination_deg": 53.1588,
      "raan_deg": 170.2777,
      "arg_perigee_deg": 80.6553,
      "mean_anomaly_deg": 279.4566,
      "mean_motion_rev_day": 15.30218264
    }
  ]
}